SWISSCUBE               
1 35932U 09051B   24366.64351943  .00004731  00000+0  98430-3 0  9994
2 35932  98.4477 253.7997 0008256  69.3645 290.8439 14.60509912811360
ZACUBE-1 (TSHEPISOSAT)  
1 39417U 13066B   24366.85670806  .00012228  00000+0  11367-2 0  9995
2 39417  97.7607 319.2531 0045169 223.8959 135.8669 14.93714349601043
MONITOR-3 (RS58S)       
1 57180U 23091Q   25001.11973679  .00022908  00000+0  12386-2 0  9999
2 57180  97.5868  58.2741 0016160 152.8948 207.3131 15.14571772 83394
POLYTECH-UNIVERSE 3 (R*)
1 57191U 23091AB  25001.10919251  .00014013  00000+0  82314-3 0  9993
2 57191  97.5838  57.4419 0018350 166.4385 193.7342 15.11675032 83354
KUZGTU 1 (RS47S)        
1 57217U 23091AV  25001.14483438  .00024546  00000+0  13017-2 0  9994
2 57217  97.5851  58.4138 0015750 152.5417 207.6650 15.15249977 83413
RUZAEVKA 390 (RS44S)    
1 61766U 24199AH  24366.87969235  .00047205  00000+0  17102-2 0  9991
2 61766  97.3795 231.0175 0014958  30.8827 329.3289 15.28118602 52537
TUSUR GO (RS78S)        
1 61782U 24199AZ  24366.88921431  .00039282  00000+0  15260-2 0  9995
2 61782  97.3773 230.8387 0019680  44.1552 316.1253 15.25775977 52528
CANX-2                  
1 32790U 08021H   24365.66017560  .00013317  00000+0  10983-2 0  9990
2 32790  97.7953 328.7501 0013596  48.4298 311.8088 14.99077033904766
BRITE-CA1 (TORONTO)     
1 40020U 14033L   24366.81738212  .00005121  00000+0  80422-3 0  9997
2 40020  97.9021 137.5091 0081266 179.8689 180.2553 14.70809683563906
POLYITAN-1              
1 40042U 14033AJ  24366.68931724  .00029943  00000+0  17699-2 0  9992
2 40042  98.0912 340.5614 0010602 175.4266 184.7061 15.11381807572572
UKUBE-1                 
1 40074U 14037F   24366.27689761  .00020086  00000+0  15977-2 0  9993
2 40074  98.3678 309.3963 0003271  94.0291 266.1305 15.00452365568260
SNAP-3 ALICE            
1 40970U 15058G   24366.42722691  .00046161  00000+0  23826-2 0  9993
2 40970  64.7677  62.0400 0128072 243.1674 115.6305 15.09143321 35400
PROPCUBE 3              
1 40973U 15058K   24366.81524759  .00016103  00000+0  13049-2 0  9993
2 40973  64.7709 109.3389 0179738 247.7802 110.4157 14.88021740 35390
HORYU-4                 
1 41340U 16012D   24366.66503626  .00036887  00000+0  13485-2 0  9991
2 41340  30.9996 119.4552 0007399 187.7533 172.2996 15.26864332488241
M2 PATHFINDER           
1 45727U 20037E   24366.44010124  .00009096  00000+0  73378-3 0  9998
2 45727  97.7772 182.3437 0011662 161.3691 198.7961 15.00051406245483
NETSAT-1                
1 46506U 20068W   24366.35524056  .00018274  00000+0  86920-3 0  9997
2 46506  97.8304 328.2272 0009476  68.4610 291.7633 15.19202450233997
ROBUSTA-1F (MTCUBE 2)   
1 53109U 22080E   24365.35174012 -.00000003  00000+0  00000+0 0  9995
2 53109  70.1231 123.9128 0008380  45.3679 314.7663  6.42584036 57766
SITRO-AIS 33            
1 59055U 24039E   25001.13600242  .00114464  00000+0  20068-2 0  9995
2 59055  97.4107 330.4963 0008030 208.0044 152.0777 15.50123368 47005
IRIDIUM 168             
1 43924U 19002C   24366.86558474  .00000755  00000+0  26260-3 0  9997
2 43924  86.3981 216.0814 0002082  84.6077 275.5356 14.34213179312672
IRIDIUM 171             
1 43929U 19002H   24366.82753357  .00000016  00000+0 -11782-5 0  9991
2 43929  86.3987 216.2614 0002009  98.8541 261.2882 14.34217626312650
IRIDIUM 170             
1 43930U 19002J   24366.84210714  .00003341  00000+0  52577-3 0  9998
2 43930  86.6098 216.0406 0002366  79.8137 280.3347 14.72255648320937
